{"type":"FeatureCollection","coordinateSpace":{"type":"imagePixel","width":1397,"height":1593,"orientation":"x east, y south","note":"Coordinates trace the reference image; they are not geographic lon/lat."},"features":[{"type":"Feature","properties":{"name":"北海道","code":"01","english":"Hokkaido","region":"H"},"geometry":{"type":"MultiPolygon","coordinates":[[[[1271.5,197.0],[1274.5,186.0],[1281.0,179.5],[1286.5,177.0],[1286.5,172.0],[1283.5,167.0],[1288.0,164.5],[1301.5,150.0],[1305.5,141.0],[1310.0,139.5],[1324.5,124.0],[1324.5,115.0],[1327.0,112.5],[1335.0,120.5],[1348.0,118.5],[1367.0,98.5],[1372.0,95.5],[1377.5,97.0],[1377.5,110.0],[1374.0,113.5],[1366.0,113.5],[1348.0,124.5],[1325.0,149.5],[1315.0,148.5],[1311.5,159.0],[1298.5,173.0],[1295.5,182.0],[1284.0,189.5],[1279.0,197.5],[1273.0,198.5],[1271.5,197.0]]],[[[1194.5,259.0],[1194.5,253.0],[1211.5,232.0],[1213.5,224.0],[1220.5,215.0],[1225.5,201.0],[1230.0,194.5],[1241.0,199.5],[1255.0,198.5],[1256.5,200.0],[1253.0,205.5],[1231.5,217.0],[1229.5,223.0],[1221.5,230.0],[1214.5,244.0],[1204.5,253.0],[1204.5,262.0],[1202.0,264.5],[1200.0,264.5],[1194.5,259.0]]],[[[866.5,399.0],[866.5,394.0],[871.5,386.0],[870.5,372.0],[872.5,368.0],[875.0,365.5],[883.0,364.5],[892.0,355.5],[894.0,357.5],[897.0,357.5],[908.5,339.0],[898.5,319.0],[898.5,314.0],[900.0,312.5],[904.0,310.5],[913.0,311.5],[928.0,321.5],[937.0,319.5],[940.0,322.5],[948.0,325.5],[951.0,325.5],[961.5,316.0],[962.5,304.0],[958.5,287.0],[958.5,275.0],[964.0,268.5],[970.5,265.0],[974.5,255.0],[973.5,236.0],[971.5,232.0],[977.5,220.0],[979.5,206.0],[979.5,195.0],[975.5,182.0],[970.5,171.0],[964.5,163.0],[966.5,142.0],[970.0,136.5],[979.0,135.5],[984.0,129.5],[1001.0,147.5],[1009.5,153.0],[1040.0,193.5],[1074.0,221.5],[1084.0,227.5],[1093.0,230.5],[1094.5,232.0],[1093.5,236.0],[1098.0,239.5],[1114.0,235.5],[1119.0,242.5],[1124.0,236.5],[1134.0,248.5],[1141.0,250.5],[1154.0,250.5],[1168.5,236.0],[1181.5,218.0],[1185.0,214.5],[1186.5,216.0],[1187.5,230.0],[1180.5,237.0],[1175.5,253.0],[1177.5,266.0],[1182.0,271.5],[1189.0,272.5],[1191.5,275.0],[1191.5,277.0],[1188.5,279.0],[1188.5,284.0],[1194.5,295.0],[1193.5,299.0],[1202.0,299.5],[1206.0,297.5],[1207.5,303.0],[1202.0,308.5],[1185.0,313.5],[1181.5,320.0],[1175.0,326.5],[1168.0,326.5],[1163.0,322.5],[1160.0,331.5],[1133.0,329.5],[1125.0,333.5],[1095.5,362.0],[1090.5,373.0],[1085.5,378.0],[1081.5,391.0],[1081.5,406.0],[1076.0,418.5],[1064.0,409.5],[1040.0,399.5],[1021.0,387.5],[1004.0,379.5],[988.0,368.5],[967.0,372.5],[960.0,380.5],[949.0,387.5],[943.0,393.5],[939.0,393.5],[921.0,374.5],[910.0,374.5],[904.5,380.0],[898.5,397.0],[916.0,411.5],[926.0,409.5],[940.0,425.5],[947.0,427.5],[953.5,435.0],[945.0,442.5],[940.0,442.5],[922.0,435.5],[909.5,449.0],[908.5,458.0],[901.0,462.5],[894.0,469.5],[891.0,469.5],[888.0,468.5],[881.5,460.0],[881.5,453.0],[888.5,434.0],[889.5,427.0],[882.5,414.0],[872.0,406.5],[866.5,399.0]]],[[[929.5,140.0],[933.0,137.5],[935.5,141.0],[933.0,148.5],[930.5,147.0],[929.5,140.0]]],[[[939.5,159.0],[939.5,156.0],[942.0,153.5],[946.0,153.5],[950.5,158.0],[950.5,161.0],[948.0,163.5],[944.0,163.5],[939.5,159.0]]],[[[1263.5,256.0],[1263.5,251.0],[1269.0,246.5],[1276.0,243.5],[1280.5,247.0],[1280.5,250.0],[1271.0,256.5],[1267.0,258.5],[1263.5,256.0]]],[[[1235.5,278.0],[1237.0,273.5],[1243.5,277.0],[1241.0,279.5],[1235.5,278.0]]],[[[1206.5,297.0],[1213.0,287.5],[1218.5,290.0],[1215.0,295.5],[1209.0,298.5],[1206.5,297.0]]],[[[845.5,414.0],[845.5,410.0],[853.0,403.5],[854.5,405.0],[853.5,413.0],[849.0,417.5],[845.5,414.0]]]]}},{"type":"Feature","properties":{"name":"青森","code":"02","english":"Aomori","region":"T"},"geometry":{"type":"MultiPolygon","coordinates":[[[[877.5,539.0],[877.5,532.0],[885.0,523.5],[898.0,520.5],[900.5,517.0],[901.5,508.0],[904.5,502.0],[902.5,496.0],[902.5,486.0],[905.0,481.5],[911.0,484.5],[919.0,483.5],[921.5,486.0],[924.5,503.0],[929.0,513.5],[934.0,513.5],[938.5,509.0],[937.5,502.0],[939.0,500.5],[948.0,505.5],[953.0,510.5],[957.5,506.0],[957.5,499.0],[961.5,493.0],[960.5,486.0],[955.0,480.5],[946.0,486.5],[938.0,489.5],[932.0,489.5],[930.5,488.0],[930.5,480.0],[932.5,469.0],[941.0,458.5],[946.0,458.5],[960.0,469.5],[969.0,467.5],[971.5,469.0],[969.5,483.0],[969.5,491.0],[971.5,495.0],[971.5,518.0],[976.5,534.0],[985.5,539.0],[980.0,546.5],[961.0,551.5],[949.0,560.5],[946.0,560.5],[943.5,558.0],[942.5,546.0],[937.0,542.5],[932.0,542.5],[926.0,547.5],[917.0,547.5],[910.0,543.5],[900.0,545.5],[890.0,543.5],[882.0,545.5],[880.5,541.0],[877.5,539.0]]]]}},{"type":"Feature","properties":{"name":"岩手","code":"03","english":"Iwate","region":"T"},"geometry":{"type":"MultiPolygon","coordinates":[[[[925.5,627.0],[935.5,608.0],[934.5,597.0],[937.5,586.0],[935.5,571.0],[938.5,561.0],[942.0,557.5],[946.0,560.5],[949.0,560.5],[961.0,551.5],[978.0,547.5],[986.0,539.5],[998.5,556.0],[1001.5,572.0],[1005.5,576.0],[1008.5,584.0],[1011.5,606.0],[1014.5,608.0],[1014.5,612.0],[1011.5,618.0],[1011.5,621.0],[1014.5,623.0],[1009.5,628.0],[1010.5,635.0],[1007.5,638.0],[1009.5,642.0],[1006.5,645.0],[1003.5,656.0],[999.0,658.5],[997.0,662.5],[992.0,662.5],[986.0,657.5],[983.0,658.5],[977.5,673.0],[964.0,677.5],[960.0,672.5],[948.0,669.5],[936.5,662.0],[936.5,657.0],[932.5,650.0],[934.5,643.0],[926.5,634.0],[925.5,627.0]]]]}},{"type":"Feature","properties":{"name":"宮城","code":"04","english":"Miyagi","region":"T"},"geometry":{"type":"MultiPolygon","coordinates":[[[[906.5,743.0],[906.5,740.0],[910.0,736.5],[913.0,736.5],[918.5,729.0],[918.5,722.0],[925.5,710.0],[923.5,699.0],[920.5,694.0],[925.5,690.0],[927.5,684.0],[923.5,672.0],[930.0,665.5],[937.0,662.5],[948.0,669.5],[960.0,672.5],[964.0,677.5],[968.0,677.5],[970.0,674.5],[976.0,674.5],[977.5,673.0],[981.5,661.0],[985.0,657.5],[992.5,663.0],[993.5,670.0],[988.5,672.0],[987.5,680.0],[984.5,685.0],[986.5,699.0],[984.5,707.0],[987.5,710.0],[987.5,716.0],[984.0,717.5],[975.0,708.5],[973.0,708.5],[965.0,714.5],[958.0,716.5],[957.5,726.0],[950.5,737.0],[951.5,751.0],[950.0,752.5],[938.0,758.5],[932.0,750.5],[922.0,748.5],[918.0,745.5],[911.0,746.5],[906.5,743.0]]]]}},{"type":"Feature","properties":{"name":"秋田","code":"05","english":"Akita","region":"T"},"geometry":{"type":"MultiPolygon","coordinates":[[[[867.5,590.0],[867.5,585.0],[870.0,582.5],[874.0,585.5],[879.5,583.0],[885.5,570.0],[886.5,558.0],[880.5,551.0],[882.0,545.5],[890.0,543.5],[896.0,545.5],[910.0,543.5],[917.0,547.5],[926.0,547.5],[932.0,542.5],[937.0,542.5],[942.5,546.0],[943.5,556.0],[938.5,561.0],[935.5,571.0],[935.5,579.0],[937.5,582.0],[936.5,593.0],[934.5,597.0],[935.5,608.0],[925.5,626.0],[926.5,634.0],[934.5,643.0],[932.5,651.0],[936.5,657.0],[936.5,661.0],[926.0,670.5],[922.0,670.5],[912.0,661.5],[900.0,659.5],[881.5,649.0],[889.5,629.0],[889.5,605.0],[886.5,601.0],[886.5,595.0],[884.0,592.5],[871.0,593.5],[867.5,590.0]]]]}},{"type":"Feature","properties":{"name":"山形","code":"06","english":"Yamagata","region":"T"},"geometry":{"type":"MultiPolygon","coordinates":[[[[863.5,698.0],[874.5,680.0],[882.0,650.5],[886.0,650.5],[891.0,655.5],[896.0,656.5],[900.0,659.5],[914.0,662.5],[923.5,672.0],[927.5,684.0],[920.5,696.0],[923.5,699.0],[923.5,706.0],[925.5,710.0],[918.5,722.0],[918.5,729.0],[913.0,736.5],[908.0,737.5],[906.5,740.0],[907.5,745.0],[904.5,750.0],[906.5,752.0],[907.5,759.0],[903.0,762.5],[895.0,763.5],[887.0,759.5],[872.0,756.5],[868.5,753.0],[867.5,747.0],[870.5,739.0],[868.5,733.0],[872.0,728.5],[881.0,724.5],[881.5,720.0],[876.0,713.5],[871.5,711.0],[869.5,704.0],[863.5,698.0]]]]}},{"type":"Feature","properties":{"name":"福島","code":"07","english":"Fukushima","region":"T"},"geometry":{"type":"MultiPolygon","coordinates":[[[[838.5,801.0],[838.5,795.0],[843.0,787.5],[850.0,786.5],[863.5,779.0],[860.5,774.0],[867.5,768.0],[868.5,764.0],[874.0,757.5],[887.0,759.5],[895.0,763.5],[901.0,763.5],[907.5,759.0],[904.5,748.0],[908.0,745.5],[918.0,745.5],[922.0,748.5],[932.0,750.5],[938.0,758.5],[948.0,752.5],[951.0,752.5],[957.5,768.0],[959.5,798.0],[956.5,812.0],[957.5,821.0],[946.0,834.5],[930.0,829.5],[921.0,837.5],[908.5,827.0],[907.5,823.0],[899.0,813.5],[893.0,812.5],[883.0,812.5],[848.0,831.5],[843.5,827.0],[845.5,823.0],[845.5,817.0],[838.5,801.0]]]]}},{"type":"Feature","properties":{"name":"茨城","code":"08","english":"Ibaraki","region":"K"},"geometry":{"type":"MultiPolygon","coordinates":[[[[869.5,886.0],[871.0,883.5],[878.0,883.5],[885.0,881.5],[890.0,877.5],[896.0,876.5],[906.5,869.0],[909.5,864.0],[909.5,835.0],[913.0,830.5],[917.0,835.5],[921.0,837.5],[923.0,837.5],[930.0,829.5],[942.0,832.5],[945.5,835.0],[935.5,865.0],[936.5,875.0],[932.5,881.0],[932.5,889.0],[937.5,901.0],[948.5,919.0],[949.5,922.0],[948.0,923.5],[942.0,920.5],[933.0,912.5],[923.0,912.5],[917.0,916.5],[907.0,916.5],[901.0,912.5],[895.0,913.5],[886.5,907.0],[881.0,898.5],[877.0,898.5],[874.5,896.0],[873.5,889.0],[869.5,886.0]]]]}},{"type":"Feature","properties":{"name":"栃木","code":"09","english":"Tochigi","region":"K"},"geometry":{"type":"MultiPolygon","coordinates":[[[[847.5,833.0],[849.0,830.5],[858.0,827.5],[883.0,812.5],[898.0,813.5],[907.5,823.0],[908.5,827.0],[911.5,830.0],[909.5,835.0],[908.5,866.0],[904.0,871.5],[900.0,872.5],[896.0,876.5],[890.0,877.5],[885.0,881.5],[878.0,883.5],[860.0,881.5],[854.5,871.0],[855.5,860.0],[857.5,856.0],[852.0,855.5],[849.5,852.0],[849.5,835.0],[847.5,833.0]]]]}},{"type":"Feature","properties":{"name":"群馬","code":"10","english":"Gunma","region":"K"},"geometry":{"type":"MultiPolygon","coordinates":[[[[792.5,869.0],[792.5,862.0],[794.5,857.0],[802.0,850.5],[812.0,850.5],[814.5,843.0],[824.0,838.5],[832.0,825.5],[836.0,825.5],[845.0,828.5],[849.5,835.0],[849.5,852.0],[852.0,855.5],[856.5,857.0],[854.5,866.0],[855.5,875.0],[857.5,879.0],[863.5,884.0],[855.0,887.5],[851.0,887.5],[845.0,884.5],[839.0,884.5],[834.5,887.0],[833.5,893.0],[829.0,897.5],[817.0,901.5],[814.5,907.0],[811.0,908.5],[806.5,904.0],[804.5,895.0],[804.5,883.0],[806.5,875.0],[799.0,871.5],[795.0,871.5],[792.5,869.0]]]]}},{"type":"Feature","properties":{"name":"埼玉","code":"11","english":"Saitama","region":"K"},"geometry":{"type":"MultiPolygon","coordinates":[[[[812.5,913.0],[815.5,904.0],[819.0,900.5],[829.0,897.5],[833.5,893.0],[833.5,888.0],[835.0,886.5],[839.0,884.5],[845.0,884.5],[851.0,887.5],[855.0,887.5],[868.0,883.5],[873.5,890.0],[874.5,896.0],[881.5,901.0],[888.5,913.0],[888.5,919.0],[886.0,923.5],[875.0,922.5],[857.0,924.5],[833.0,916.5],[828.0,919.5],[822.0,918.5],[812.5,913.0]]]]}},{"type":"Feature","properties":{"name":"千葉","code":"12","english":"Chiba","region":"K"},"geometry":{"type":"MultiPolygon","coordinates":[[[[885.5,965.0],[887.5,958.0],[903.5,940.0],[903.5,938.0],[899.0,933.5],[894.0,933.5],[891.0,935.5],[889.5,934.0],[887.5,923.0],[888.5,913.0],[885.5,910.0],[887.0,907.5],[894.0,912.5],[901.0,912.5],[907.0,917.5],[917.0,916.5],[923.0,912.5],[933.0,912.5],[942.0,920.5],[951.5,925.0],[950.0,928.5],[937.0,932.5],[931.5,938.0],[926.5,951.0],[925.5,967.0],[922.5,973.0],[918.0,977.5],[904.0,980.5],[891.0,994.5],[886.5,993.0],[888.5,982.0],[886.5,979.0],[887.5,967.0],[885.5,965.0]]]]}},{"type":"Feature","properties":{"name":"東京","code":"13","english":"Tokyo","region":"K"},"geometry":{"type":"MultiPolygon","coordinates":[[[[828.5,921.0],[832.0,916.5],[858.0,924.5],[875.0,922.5],[887.0,923.5],[889.5,928.0],[889.5,935.0],[883.0,941.5],[880.0,939.5],[876.0,940.5],[872.0,938.5],[849.0,937.5],[842.0,935.5],[831.5,926.0],[828.5,921.0]]],[[[857.5,1012.0],[857.5,1006.0],[859.0,1004.5],[865.5,1011.0],[863.0,1013.5],[857.5,1012.0]]]]}},{"type":"Feature","properties":{"name":"神奈川","code":"14","english":"Kanagawa","region":"K"},"geometry":{"type":"MultiPolygon","coordinates":[[[[826.5,955.0],[832.0,948.5],[836.0,947.5],[840.5,943.0],[843.0,935.5],[855.0,938.5],[872.0,938.5],[876.0,940.5],[880.0,939.5],[882.5,942.0],[882.5,945.0],[875.5,952.0],[875.5,962.0],[880.5,965.0],[880.5,970.0],[875.0,975.5],[872.5,974.0],[873.5,969.0],[869.0,963.5],[858.0,961.5],[847.0,967.5],[846.5,973.0],[843.0,976.5],[838.0,975.5],[829.5,970.0],[831.5,966.0],[831.5,959.0],[826.5,955.0]]]]}},{"type":"Feature","properties":{"name":"新潟","code":"15","english":"Niigata","region":"C"},"geometry":{"type":"MultiPolygon","coordinates":[[[[744.5,832.0],[746.0,828.5],[756.0,825.5],[771.0,814.5],[782.0,812.5],[800.5,796.0],[805.5,786.0],[812.5,780.0],[815.5,766.0],[818.5,761.0],[823.0,756.5],[840.0,746.5],[852.5,735.0],[854.5,726.0],[853.5,716.0],[855.5,709.0],[860.5,701.0],[864.0,698.5],[869.5,704.0],[871.5,712.0],[878.5,716.0],[881.5,720.0],[881.5,723.0],[872.0,728.5],[868.5,733.0],[870.5,739.0],[867.5,751.0],[873.5,758.0],[868.5,764.0],[867.5,768.0],[860.5,774.0],[863.5,779.0],[850.0,786.5],[843.0,787.5],[839.5,792.0],[838.5,802.0],[845.5,817.0],[845.5,823.0],[843.5,827.0],[842.0,828.5],[836.0,825.5],[832.0,825.5],[826.5,836.0],[818.0,841.5],[811.0,840.5],[805.5,835.0],[805.5,831.0],[797.0,823.5],[791.0,824.5],[781.0,836.5],[773.0,838.5],[769.0,838.5],[765.0,832.5],[759.0,831.5],[749.0,841.5],[744.5,832.0]]],[[[778.5,761.0],[785.5,752.0],[779.5,746.0],[780.5,738.0],[794.0,722.5],[795.5,724.0],[794.5,740.0],[801.5,742.0],[799.5,751.0],[788.0,762.5],[780.0,762.5],[778.5,761.0]]]]}},{"type":"Feature","properties":{"name":"富山","code":"16","english":"Toyama","region":"C"},"geometry":{"type":"MultiPolygon","coordinates":[[[[686.5,879.0],[686.5,863.0],[689.5,851.0],[688.5,843.0],[698.0,829.5],[705.5,832.0],[704.5,842.0],[708.0,847.5],[724.0,846.5],[728.5,837.0],[737.0,829.5],[743.0,829.5],[744.5,831.0],[749.5,842.0],[749.5,852.0],[743.5,862.0],[742.5,870.0],[739.0,874.5],[724.0,871.5],[714.0,871.5],[706.0,875.5],[700.0,884.5],[698.0,884.5],[695.0,880.5],[689.0,881.5],[686.5,879.0]]]]}},{"type":"Feature","properties":{"name":"石川","code":"17","english":"Ishikawa","region":"C"},"geometry":{"type":"MultiPolygon","coordinates":[[[[651.5,888.0],[667.5,873.0],[675.5,858.0],[683.5,850.0],[686.5,840.0],[685.5,824.0],[681.5,817.0],[684.5,802.0],[721.0,784.5],[724.5,788.0],[725.5,792.0],[719.5,798.0],[718.5,803.0],[716.0,805.5],[710.0,806.5],[704.0,813.5],[698.0,812.5],[695.5,816.0],[695.5,819.0],[699.0,822.5],[702.0,822.5],[706.5,829.0],[705.0,830.5],[698.0,829.5],[688.5,843.0],[689.5,851.0],[686.5,863.0],[686.5,879.0],[688.5,882.0],[688.5,890.0],[684.5,893.0],[684.5,898.0],[678.0,902.5],[674.0,895.5],[663.0,894.5],[655.0,891.5],[651.5,888.0]]]]}},{"type":"Feature","properties":{"name":"福井","code":"18","english":"Fukui","region":"C"},"geometry":{"type":"MultiPolygon","coordinates":[[[[599.5,949.0],[599.5,945.0],[604.0,943.5],[609.0,949.5],[612.0,946.5],[616.0,949.5],[619.0,949.5],[621.0,945.5],[624.5,945.0],[627.0,939.5],[631.0,939.5],[634.5,937.0],[635.5,932.0],[638.0,929.5],[641.0,932.5],[642.5,932.0],[641.5,924.0],[636.5,914.0],[635.5,907.0],[646.0,889.5],[651.0,887.5],[657.0,892.5],[663.0,894.5],[672.0,894.5],[675.5,897.0],[676.5,903.0],[682.5,915.0],[685.5,917.0],[686.5,924.0],[683.0,927.5],[660.0,929.5],[652.0,938.5],[649.0,938.5],[630.0,947.5],[622.0,962.5],[619.0,959.5],[614.0,959.5],[604.0,955.5],[599.5,949.0]]]]}},{"type":"Feature","properties":{"name":"山梨","code":"19","english":"Yamanashi","region":"C"},"geometry":{"type":"MultiPolygon","coordinates":[[[[778.5,936.0],[779.5,921.0],[789.0,912.5],[796.0,913.5],[801.0,916.5],[813.0,913.5],[822.0,918.5],[827.0,918.5],[831.5,926.0],[841.5,935.0],[841.5,941.0],[828.0,953.5],[819.0,956.5],[808.0,956.5],[805.0,953.5],[801.0,952.5],[798.5,957.0],[798.5,970.0],[797.0,971.5],[792.0,971.5],[788.5,964.0],[782.5,961.0],[781.5,942.0],[778.5,936.0]]]]}},{"type":"Feature","properties":{"name":"長野","code":"20","english":"Nagano","region":"C"},"geometry":{"type":"MultiPolygon","coordinates":[[[[723.5,922.0],[736.5,908.0],[737.5,889.0],[741.5,884.0],[737.5,876.0],[740.5,874.0],[743.5,862.0],[749.5,852.0],[748.5,843.0],[759.0,831.5],[764.0,832.5],[769.0,838.5],[773.0,838.5],[781.0,836.5],[791.0,824.5],[797.0,823.5],[804.5,830.0],[805.5,835.0],[814.5,843.0],[812.0,850.5],[802.0,850.5],[794.5,857.0],[792.5,862.0],[792.5,869.0],[795.0,871.5],[799.0,871.5],[806.5,875.0],[804.5,883.0],[804.5,895.0],[806.5,904.0],[812.5,910.0],[812.5,913.0],[809.0,915.5],[801.0,916.5],[789.0,912.5],[781.0,919.5],[778.5,926.0],[778.5,936.0],[775.5,938.0],[775.5,941.0],[772.5,944.0],[771.5,959.0],[766.0,963.5],[760.0,965.5],[755.0,970.5],[740.0,969.5],[736.5,966.0],[738.5,958.0],[740.5,956.0],[740.5,947.0],[733.5,937.0],[732.5,931.0],[723.5,922.0]]]]}},{"type":"Feature","properties":{"name":"岐阜","code":"21","english":"Gifu","region":"C"},"geometry":{"type":"MultiPolygon","coordinates":[[[[653.5,940.0],[654.5,935.0],[660.0,929.5],[683.0,927.5],[685.5,926.0],[685.5,917.0],[681.5,913.0],[677.5,904.0],[684.5,898.0],[684.5,893.0],[688.5,890.0],[687.5,883.0],[689.0,881.5],[695.0,880.5],[698.0,884.5],[700.0,884.5],[706.0,875.5],[714.0,871.5],[730.0,872.5],[738.5,877.0],[741.5,884.0],[737.5,889.0],[736.5,908.0],[723.5,921.0],[732.5,932.0],[733.5,937.0],[740.5,947.0],[740.5,956.0],[735.0,968.5],[715.0,966.5],[696.0,957.5],[690.0,960.5],[686.0,960.5],[675.0,973.5],[672.0,970.5],[664.5,968.0],[663.5,957.0],[660.5,953.0],[660.5,948.0],[653.5,940.0]]]]}},{"type":"Feature","properties":{"name":"靜岡","code":"22","english":"Shizuoka","region":"C"},"geometry":{"type":"MultiPolygon","coordinates":[[[[732.5,1016.0],[733.5,1004.0],[742.5,996.0],[746.5,988.0],[752.5,982.0],[752.5,973.0],[760.0,965.5],[766.0,963.5],[771.5,959.0],[772.5,944.0],[777.0,937.5],[781.5,942.0],[782.5,961.0],[788.5,964.0],[792.0,971.5],[797.0,971.5],[798.5,970.0],[798.5,957.0],[802.0,952.5],[809.0,957.5],[813.0,955.5],[820.0,956.5],[826.0,954.5],[831.5,959.0],[829.5,970.0],[841.5,977.0],[840.5,991.0],[843.5,994.0],[842.5,999.0],[833.5,1011.0],[833.5,1016.0],[826.0,1020.5],[823.0,1020.5],[817.5,1012.0],[817.5,990.0],[820.0,986.5],[825.5,985.0],[820.0,980.5],[813.0,978.5],[808.0,978.5],[802.5,984.0],[801.5,992.0],[792.5,996.0],[787.5,1009.0],[784.5,1011.0],[782.5,1018.0],[780.0,1020.5],[772.0,1018.5],[762.0,1018.5],[755.0,1021.5],[748.0,1018.5],[737.0,1018.5],[732.5,1016.0]]]]}},{"type":"Feature","properties":{"name":"愛知","code":"23","english":"Aichi","region":"C"},"geometry":{"type":"MultiPolygon","coordinates":[[[[676.5,978.0],[677.5,972.0],[682.5,964.0],[686.0,960.5],[690.0,960.5],[696.0,957.5],[703.0,962.5],[708.0,962.5],[715.0,966.5],[725.0,968.5],[737.0,967.5],[740.0,969.5],[749.0,969.5],[753.5,972.0],[752.5,982.0],[746.5,988.0],[742.5,996.0],[733.5,1004.0],[732.5,1016.0],[711.0,1023.5],[707.0,1023.5],[705.5,1021.0],[709.0,1017.5],[718.0,1013.5],[719.5,1009.0],[705.0,1008.5],[700.0,1005.5],[700.5,1012.0],[695.0,1013.5],[692.5,1011.0],[692.5,1004.0],[689.5,1001.0],[689.5,995.0],[695.5,987.0],[689.0,986.5],[685.0,988.5],[676.5,978.0]]]]}},{"type":"Feature","properties":{"name":"三重","code":"24","english":"Mie","region":"I"},"geometry":{"type":"MultiPolygon","coordinates":[[[[625.5,1084.0],[625.5,1081.0],[631.5,1076.0],[631.5,1069.0],[641.5,1062.0],[642.5,1047.0],[638.5,1041.0],[638.5,1038.0],[642.0,1035.5],[649.5,1034.0],[648.5,1027.0],[639.5,1020.0],[636.5,1007.0],[644.0,1000.5],[652.0,998.5],[657.5,993.0],[662.5,987.0],[662.5,978.0],[664.5,971.0],[670.0,969.5],[676.5,975.0],[677.5,980.0],[683.5,987.0],[680.5,992.0],[678.5,1003.0],[672.5,1009.0],[671.5,1019.0],[697.5,1038.0],[696.5,1048.0],[694.0,1050.5],[691.0,1050.5],[689.5,1049.0],[691.0,1046.5],[683.0,1046.5],[668.0,1053.5],[659.0,1055.5],[657.5,1061.0],[652.5,1065.0],[653.5,1074.0],[641.5,1084.0],[636.0,1094.5],[628.0,1088.5],[625.5,1084.0]]]]}},{"type":"Feature","properties":{"name":"滋賀","code":"25","english":"Shiga","region":"I"},"geometry":{"type":"MultiPolygon","coordinates":[[[[622.5,970.0],[622.5,963.0],[625.5,958.0],[626.5,952.0],[630.0,947.5],[649.0,938.5],[652.0,938.5],[659.5,946.0],[665.5,969.0],[662.5,978.0],[662.5,987.0],[652.0,998.5],[642.0,1001.5],[639.0,1005.5],[636.0,1004.5],[631.5,1000.0],[624.5,987.0],[622.5,970.0]]]]}},{"type":"Feature","properties":{"name":"京都","code":"26","english":"Kyoto","region":"I"},"geometry":{"type":"MultiPolygon","coordinates":[[[[563.5,940.0],[565.0,936.5],[570.0,935.5],[579.0,928.5],[588.0,928.5],[590.5,932.0],[587.5,939.0],[587.5,944.0],[593.0,949.5],[596.0,949.5],[598.0,946.5],[603.0,955.5],[609.0,956.5],[614.0,959.5],[619.0,959.5],[622.5,963.0],[624.5,987.0],[631.5,1000.0],[636.5,1005.0],[636.5,1009.0],[635.0,1010.5],[623.0,1010.5],[620.0,1008.5],[617.5,1006.0],[617.5,995.0],[616.0,993.5],[611.0,991.5],[604.0,994.5],[595.5,980.0],[587.0,974.5],[582.0,967.5],[569.0,963.5],[566.5,959.0],[573.5,955.0],[573.5,951.0],[572.5,947.0],[563.5,940.0]]]]}},{"type":"Feature","properties":{"name":"大阪","code":"27","english":"Osaka","region":"I"},"geometry":{"type":"MultiPolygon","coordinates":[[[[580.5,1043.0],[592.5,1035.0],[599.5,1023.0],[598.5,1014.0],[596.5,1012.0],[598.5,1006.0],[598.5,994.0],[595.5,986.0],[597.0,982.5],[602.5,991.0],[603.0,994.5],[612.0,991.5],[617.5,995.0],[617.5,1006.0],[623.5,1011.0],[611.5,1025.0],[611.5,1038.0],[610.0,1039.5],[595.0,1041.5],[589.0,1044.5],[582.0,1044.5],[580.5,1043.0]]]]}},{"type":"Feature","properties":{"name":"兵庫","code":"28","english":"Hyogo","region":"I"},"geometry":{"type":"MultiPolygon","coordinates":[[[[519.5,997.0],[519.5,987.0],[522.5,980.0],[538.5,963.0],[536.5,950.0],[530.5,940.0],[540.0,936.5],[562.0,936.5],[563.5,940.0],[572.5,947.0],[573.5,951.0],[573.5,955.0],[566.5,959.0],[567.5,962.0],[572.0,965.5],[578.0,965.5],[582.0,967.5],[584.5,972.0],[596.5,982.0],[595.5,986.0],[598.5,995.0],[598.5,1006.0],[595.0,1011.5],[591.0,1011.5],[582.0,1018.5],[576.0,1019.5],[548.0,1005.5],[538.0,1009.5],[525.0,1010.5],[519.5,997.0]]],[[[546.5,1047.0],[546.5,1045.0],[553.5,1038.0],[553.5,1034.0],[569.0,1022.5],[570.5,1025.0],[564.5,1036.0],[566.5,1048.0],[561.0,1052.5],[554.0,1053.5],[546.5,1047.0]]]]}},{"type":"Feature","properties":{"name":"奈良","code":"29","english":"Nara","region":"I"},"geometry":{"type":"MultiPolygon","coordinates":[[[[604.5,1066.0],[606.5,1057.0],[614.5,1050.0],[610.5,1036.0],[612.5,1023.0],[624.0,1010.5],[636.0,1010.5],[638.5,1013.0],[639.5,1020.0],[649.5,1029.0],[648.0,1034.5],[642.0,1035.5],[638.5,1038.0],[638.5,1041.0],[642.5,1047.0],[641.5,1062.0],[631.5,1069.0],[631.5,1076.0],[627.0,1079.5],[608.0,1079.5],[604.5,1066.0]]]]}},{"type":"Feature","properties":{"name":"和歌山","code":"30","english":"Wakayama","region":"I"},"geometry":{"type":"MultiPolygon","coordinates":[[[[574.5,1078.0],[575.5,1073.0],[578.5,1069.0],[575.5,1065.0],[577.5,1055.0],[575.5,1047.0],[580.0,1044.5],[589.0,1044.5],[595.0,1041.5],[610.0,1039.5],[614.5,1050.0],[606.5,1057.0],[604.5,1061.0],[606.5,1078.0],[611.0,1080.5],[624.0,1079.5],[626.5,1087.0],[631.0,1089.5],[636.5,1096.0],[633.5,1103.0],[621.0,1115.5],[615.0,1115.5],[598.0,1107.5],[593.5,1101.0],[590.5,1091.0],[574.5,1078.0]]]]}},{"type":"Feature","properties":{"name":"鳥取","code":"31","english":"Tottori","region":"G"},"geometry":{"type":"MultiPolygon","coordinates":[[[[448.5,977.0],[450.5,968.0],[459.5,960.0],[458.5,949.0],[460.0,947.5],[467.0,948.5],[478.0,943.5],[489.0,945.5],[511.0,944.5],[529.0,939.5],[536.5,950.0],[538.5,963.0],[531.0,970.5],[519.0,971.5],[515.0,969.5],[511.0,964.5],[506.0,962.5],[490.0,963.5],[486.0,960.5],[478.0,960.5],[459.0,981.5],[456.0,981.5],[448.5,977.0]]]]}},{"type":"Feature","properties":{"name":"島根","code":"32","english":"Shimane","region":"G"},"geometry":{"type":"MultiPolygon","coordinates":[[[[349.5,1015.0],[349.5,1009.0],[351.0,1007.5],[359.0,1006.5],[364.0,1003.5],[383.0,985.5],[395.0,977.5],[406.0,964.5],[411.0,963.5],[417.0,959.5],[419.5,956.0],[417.5,950.0],[420.0,947.5],[438.0,942.5],[445.0,938.5],[455.0,939.5],[456.5,941.0],[459.5,960.0],[450.5,968.0],[448.5,976.0],[447.0,977.5],[427.0,977.5],[421.5,982.0],[419.5,988.0],[410.0,996.5],[393.0,997.5],[384.0,1000.5],[380.5,1005.0],[377.5,1014.0],[377.5,1021.0],[372.5,1028.0],[372.5,1033.0],[371.0,1034.5],[357.0,1038.5],[355.5,1036.0],[357.5,1033.0],[357.5,1025.0],[349.5,1015.0]]],[[[455.5,887.0],[455.5,884.0],[463.0,878.5],[469.5,885.0],[463.0,892.5],[459.0,892.5],[455.5,887.0]]],[[[440.5,898.0],[442.0,895.5],[447.0,894.5],[448.5,896.0],[445.0,899.5],[440.5,898.0]]]]}},{"type":"Feature","properties":{"name":"岡山","code":"33","english":"Okayama","region":"G"},"geometry":{"type":"MultiPolygon","coordinates":[[[[458.5,985.0],[458.5,982.0],[478.0,960.5],[486.0,960.5],[490.0,963.5],[506.0,962.5],[511.0,964.5],[515.0,969.5],[519.0,971.5],[529.0,970.5],[530.5,972.0],[522.5,980.0],[519.5,987.0],[519.5,997.0],[523.5,1007.0],[522.5,1012.0],[512.0,1021.5],[508.0,1020.5],[499.0,1031.5],[492.0,1031.5],[483.0,1026.5],[478.0,1029.5],[472.0,1030.5],[463.5,1022.0],[458.5,985.0]]]]}},{"type":"Feature","properties":{"name":"廣島","code":"34","english":"Hiroshima","region":"G"},"geometry":{"type":"MultiPolygon","coordinates":[[[[372.5,1033.0],[372.5,1028.0],[377.5,1021.0],[377.5,1014.0],[380.5,1005.0],[384.0,1000.5],[393.0,997.5],[410.0,996.5],[419.5,988.0],[421.5,982.0],[427.0,977.5],[449.0,977.5],[453.0,978.5],[458.5,983.0],[461.5,1015.0],[463.5,1022.0],[468.5,1028.0],[460.0,1038.5],[455.0,1035.5],[451.5,1038.0],[449.0,1043.5],[443.0,1044.5],[441.5,1041.0],[446.5,1037.0],[444.0,1036.5],[441.0,1039.5],[430.0,1039.5],[417.0,1048.5],[408.0,1048.5],[403.5,1040.0],[398.0,1036.5],[391.0,1039.5],[386.0,1047.5],[377.5,1040.0],[376.5,1035.0],[372.5,1033.0]]],[[[401.5,1056.0],[403.5,1051.0],[407.0,1048.5],[409.5,1057.0],[405.0,1058.5],[401.5,1056.0]]]]}},{"type":"Feature","properties":{"name":"山口","code":"35","english":"Yamaguchi","region":"G"},"geometry":{"type":"MultiPolygon","coordinates":[[[[295.5,1055.0],[295.5,1048.0],[298.5,1045.0],[296.5,1036.0],[300.0,1030.5],[307.0,1025.5],[320.0,1025.5],[323.0,1029.5],[330.0,1027.5],[348.0,1008.5],[349.5,1010.0],[349.5,1016.0],[357.5,1025.0],[357.5,1033.0],[355.5,1038.0],[361.0,1038.5],[368.0,1034.5],[375.0,1034.5],[377.5,1040.0],[386.5,1048.0],[385.5,1067.0],[391.0,1069.5],[398.0,1068.5],[399.5,1071.0],[397.0,1073.5],[385.0,1074.5],[381.0,1069.5],[379.5,1078.0],[376.0,1080.5],[374.0,1072.5],[362.0,1065.5],[357.0,1065.5],[354.0,1059.5],[344.0,1063.5],[339.0,1061.5],[332.0,1062.5],[330.0,1059.5],[324.0,1066.5],[317.0,1066.5],[309.0,1055.5],[303.0,1061.5],[299.0,1062.5],[295.5,1055.0]]]]}},{"type":"Feature","properties":{"name":"德島","code":"36","english":"Tokushima","region":"S"},"geometry":{"type":"MultiPolygon","coordinates":[[[[478.5,1077.0],[480.5,1063.0],[482.0,1061.5],[489.0,1059.5],[501.0,1059.5],[509.0,1055.5],[522.0,1052.5],[543.0,1050.5],[545.5,1056.0],[542.5,1064.0],[542.5,1069.0],[548.5,1074.0],[549.5,1084.0],[539.0,1092.5],[530.0,1096.5],[520.0,1109.5],[516.0,1108.5],[512.5,1105.0],[508.5,1095.0],[501.0,1084.5],[494.0,1084.5],[478.5,1077.0]]]]}},{"type":"Feature","properties":{"name":"香川","code":"37","english":"Kagawa","region":"S"},"geometry":{"type":"MultiPolygon","coordinates":[[[[477.5,1052.0],[479.0,1047.5],[488.0,1047.5],[498.0,1038.5],[505.0,1036.5],[519.0,1040.5],[533.5,1051.0],[532.0,1052.5],[512.0,1054.5],[501.0,1059.5],[489.0,1059.5],[486.0,1061.5],[481.0,1061.5],[479.5,1060.0],[477.5,1052.0]]],[[[516.5,1030.0],[518.5,1025.0],[521.0,1023.5],[523.5,1029.0],[519.0,1031.5],[516.5,1030.0]]]]}},{"type":"Feature","properties":{"name":"愛媛","code":"38","english":"Ehime","region":"S"},"geometry":{"type":"MultiPolygon","coordinates":[[[[369.5,1116.0],[378.0,1108.5],[392.0,1104.5],[397.0,1097.5],[410.0,1091.5],[415.5,1084.0],[421.5,1068.0],[434.0,1057.5],[438.5,1061.0],[444.0,1070.5],[451.0,1070.5],[455.0,1067.5],[470.0,1068.5],[479.0,1061.5],[480.5,1063.0],[480.5,1069.0],[477.0,1077.5],[465.0,1080.5],[453.0,1080.5],[444.5,1086.0],[438.5,1094.0],[434.5,1104.0],[430.0,1108.5],[424.5,1109.0],[422.5,1122.0],[412.0,1132.5],[403.5,1136.0],[404.5,1139.0],[399.0,1146.5],[397.5,1145.0],[398.5,1135.0],[394.5,1131.0],[401.0,1128.5],[402.5,1124.0],[393.5,1121.0],[392.5,1111.0],[389.0,1109.5],[379.0,1113.5],[374.0,1117.5],[369.5,1116.0]]],[[[435.5,1048.0],[435.5,1045.0],[438.0,1042.5],[441.5,1047.0],[439.0,1049.5],[435.5,1048.0]]]]}},{"type":"Feature","properties":{"name":"高知","code":"39","english":"Kochi","region":"S"},"geometry":{"type":"MultiPolygon","coordinates":[[[[397.5,1148.0],[402.5,1143.0],[404.5,1139.0],[403.5,1136.0],[412.0,1132.5],[422.5,1122.0],[424.5,1110.0],[430.0,1108.5],[434.5,1104.0],[438.5,1094.0],[444.5,1086.0],[453.0,1080.5],[465.0,1080.5],[479.0,1077.5],[494.0,1084.5],[499.0,1083.5],[503.5,1087.0],[512.5,1105.0],[516.0,1108.5],[520.5,1110.0],[513.0,1129.5],[497.0,1111.5],[488.0,1106.5],[474.0,1109.5],[465.0,1116.5],[455.0,1119.5],[452.5,1129.0],[442.5,1140.0],[441.5,1145.0],[434.5,1147.0],[434.5,1152.0],[430.5,1159.0],[433.5,1166.0],[432.0,1169.5],[426.0,1165.5],[421.0,1167.5],[412.0,1165.5],[409.5,1163.0],[411.5,1156.0],[410.5,1152.0],[400.0,1151.5],[397.5,1148.0]]]]}},{"type":"Feature","properties":{"name":"福岡","code":"40","english":"Fukuoka","region":"Y"},"geometry":{"type":"MultiPolygon","coordinates":[[[[243.5,1095.0],[243.5,1091.0],[249.0,1085.5],[260.0,1089.5],[261.5,1086.0],[259.5,1083.0],[267.5,1076.0],[267.5,1071.0],[278.0,1066.5],[281.0,1063.5],[287.0,1063.5],[294.0,1066.5],[301.0,1064.5],[302.5,1066.0],[301.5,1071.0],[306.5,1087.0],[313.5,1092.0],[313.5,1095.0],[311.0,1097.5],[297.0,1098.5],[290.5,1104.0],[288.5,1109.0],[289.5,1128.0],[288.0,1129.5],[276.0,1126.5],[260.0,1136.5],[258.5,1132.0],[253.5,1127.0],[257.5,1116.0],[263.0,1114.5],[267.5,1111.0],[262.0,1104.5],[258.5,1103.0],[256.0,1098.5],[247.0,1097.5],[243.5,1095.0]]]]}},{"type":"Feature","properties":{"name":"佐賀","code":"41","english":"Saga","region":"Y"},"geometry":{"type":"MultiPolygon","coordinates":[[[[217.5,1116.0],[218.5,1109.0],[220.0,1107.5],[223.0,1108.5],[224.5,1106.0],[221.5,1099.0],[228.0,1092.5],[230.0,1092.5],[235.0,1099.5],[242.0,1095.5],[256.0,1098.5],[266.5,1111.0],[263.0,1114.5],[257.5,1116.0],[257.5,1119.0],[253.0,1126.5],[249.0,1123.5],[242.5,1128.0],[246.5,1137.0],[245.0,1139.5],[233.0,1134.5],[226.5,1128.0],[226.5,1125.0],[223.5,1121.0],[217.5,1116.0]]],[[[202.5,1241.0],[208.0,1233.5],[210.5,1235.0],[205.0,1243.5],[202.5,1241.0]]]]}},{"type":"Feature","properties":{"name":"長崎","code":"42","english":"Nagasaki","region":"Y"},"geometry":{"type":"MultiPolygon","coordinates":[[[[194.5,1115.0],[195.5,1111.0],[202.0,1103.5],[217.0,1105.5],[218.5,1107.0],[217.5,1116.0],[223.5,1121.0],[226.5,1125.0],[226.5,1128.0],[233.0,1134.5],[245.5,1140.0],[242.5,1148.0],[251.0,1147.5],[255.5,1152.0],[255.5,1160.0],[248.0,1167.5],[241.0,1167.5],[239.5,1163.0],[241.5,1161.0],[241.5,1156.0],[238.0,1153.5],[230.0,1155.5],[219.0,1167.5],[216.0,1167.5],[214.5,1166.0],[215.5,1154.0],[207.5,1143.0],[206.5,1137.0],[212.0,1129.5],[219.5,1137.0],[218.5,1145.0],[225.0,1148.5],[228.5,1145.0],[227.5,1137.0],[222.0,1131.5],[216.0,1129.5],[211.5,1123.0],[203.5,1117.0],[204.0,1109.5],[199.0,1116.5],[194.5,1115.0]]],[[[191.5,1021.0],[196.5,1002.0],[206.0,996.5],[207.5,998.0],[207.5,1007.0],[200.5,1016.0],[199.5,1025.0],[198.0,1026.5],[196.0,1022.5],[191.5,1021.0]]],[[[184.5,1042.0],[186.5,1030.0],[189.0,1026.5],[191.0,1026.5],[196.5,1031.0],[195.5,1035.0],[188.0,1044.5],[184.5,1042.0]]],[[[215.5,1075.0],[215.5,1067.0],[218.0,1064.5],[221.0,1065.5],[222.5,1067.0],[222.5,1074.0],[220.0,1076.5],[215.5,1075.0]]],[[[165.5,1137.0],[165.5,1134.0],[172.0,1128.5],[176.5,1134.0],[168.0,1145.5],[165.5,1137.0]]],[[[137.5,1159.0],[138.5,1152.0],[142.0,1147.5],[151.0,1147.5],[155.5,1154.0],[153.0,1157.5],[147.0,1158.5],[145.0,1160.5],[139.0,1160.5],[137.5,1159.0]]],[[[227.5,1197.0],[227.5,1194.0],[230.5,1191.0],[227.5,1188.0],[229.5,1176.0],[233.0,1172.5],[238.0,1171.5],[242.5,1175.0],[242.5,1189.0],[232.0,1198.5],[227.5,1197.0]]]]}},{"type":"Feature","properties":{"name":"熊本","code":"43","english":"Kumamoto","region":"Y"},"geometry":{"type":"MultiPolygon","coordinates":[[[[249.5,1203.0],[261.5,1189.0],[271.5,1170.0],[265.0,1168.5],[262.5,1166.0],[271.5,1158.0],[259.5,1143.0],[258.5,1138.0],[276.0,1126.5],[287.0,1129.5],[291.0,1134.5],[297.5,1131.0],[296.5,1127.0],[298.0,1125.5],[306.0,1126.5],[313.5,1138.0],[314.5,1155.0],[299.5,1170.0],[298.5,1184.0],[300.5,1189.0],[298.5,1195.0],[298.5,1203.0],[290.0,1208.5],[285.0,1209.5],[275.0,1209.5],[267.0,1202.5],[260.0,1205.5],[251.0,1204.5],[249.5,1203.0]]],[[[244.5,1183.0],[244.5,1179.0],[250.0,1175.5],[258.0,1175.5],[259.5,1177.0],[257.5,1183.0],[254.0,1186.5],[244.5,1183.0]]]]}},{"type":"Feature","properties":{"name":"大分","code":"44","english":"Oita","region":"Y"},"geometry":{"type":"MultiPolygon","coordinates":[[[[288.5,1132.0],[288.5,1109.0],[290.5,1104.0],[295.0,1099.5],[311.0,1097.5],[315.0,1091.5],[320.0,1094.5],[330.0,1094.5],[337.0,1088.5],[343.0,1087.5],[350.5,1096.0],[351.5,1104.0],[348.0,1109.5],[340.0,1114.5],[336.0,1114.5],[335.5,1118.0],[349.0,1122.5],[357.0,1122.5],[359.5,1125.0],[356.5,1133.0],[365.5,1139.0],[360.5,1143.0],[367.5,1151.0],[364.5,1154.0],[364.5,1158.0],[359.0,1160.5],[356.0,1164.5],[352.0,1156.5],[332.0,1159.5],[328.0,1154.5],[314.5,1151.0],[312.5,1135.0],[306.0,1126.5],[298.0,1125.5],[296.0,1132.5],[291.0,1134.5],[288.5,1132.0]]]]}},{"type":"Feature","properties":{"name":"宮崎","code":"45","english":"Miyazaki","region":"Y"},"geometry":{"type":"MultiPolygon","coordinates":[[[[274.5,1211.0],[276.0,1209.5],[291.0,1208.5],[298.5,1204.0],[298.5,1195.0],[300.5,1189.0],[298.5,1184.0],[299.5,1170.0],[316.0,1152.5],[328.0,1154.5],[332.0,1159.5],[339.0,1159.5],[346.0,1156.5],[351.0,1156.5],[352.5,1158.0],[355.5,1165.0],[344.5,1177.0],[345.5,1183.0],[339.5,1190.0],[330.5,1213.0],[329.5,1221.0],[324.5,1231.0],[324.5,1235.0],[326.5,1237.0],[324.5,1248.0],[318.5,1263.0],[313.0,1268.5],[309.0,1268.5],[301.5,1262.0],[301.5,1258.0],[303.5,1256.0],[302.5,1251.0],[296.0,1248.5],[290.5,1244.0],[290.5,1238.0],[285.5,1234.0],[274.5,1211.0]]]]}},{"type":"Feature","properties":{"name":"鹿兒島","code":"46","english":"Kagoshima","region":"Y"},"geometry":{"type":"MultiPolygon","coordinates":[[[[233.5,1268.0],[233.5,1264.0],[236.0,1261.5],[241.0,1261.5],[244.5,1258.0],[246.5,1249.0],[245.5,1242.0],[237.5,1236.0],[239.5,1208.0],[246.0,1204.5],[260.0,1205.5],[266.0,1202.5],[268.0,1203.5],[274.5,1210.0],[274.5,1213.0],[281.5,1224.0],[285.5,1235.0],[290.5,1240.0],[290.5,1244.0],[294.0,1248.5],[295.0,1247.5],[300.0,1249.5],[303.5,1254.0],[300.5,1262.0],[292.5,1269.0],[296.5,1273.0],[298.5,1279.0],[290.0,1284.5],[289.5,1288.0],[287.0,1290.5],[272.0,1296.5],[268.5,1295.0],[268.5,1292.0],[274.5,1284.0],[276.5,1272.0],[275.5,1267.0],[266.5,1255.0],[266.5,1250.0],[270.0,1248.5],[276.0,1250.5],[278.5,1247.0],[278.5,1244.0],[276.0,1242.5],[268.0,1243.5],[263.5,1248.0],[259.5,1257.0],[259.5,1265.0],[266.5,1278.0],[266.5,1282.0],[263.0,1285.5],[260.0,1285.5],[251.0,1277.5],[239.0,1276.5],[233.5,1268.0]]],[[[277.5,1348.0],[277.5,1343.0],[282.5,1335.0],[283.5,1326.0],[288.5,1317.0],[293.0,1314.5],[294.5,1320.0],[292.5,1330.0],[286.5,1339.0],[285.5,1346.0],[282.0,1349.5],[277.5,1348.0]]],[[[243.5,1350.0],[243.5,1347.0],[247.0,1343.5],[254.0,1341.5],[256.0,1343.5],[259.0,1343.5],[263.5,1348.0],[263.5,1354.0],[258.0,1359.5],[250.0,1359.5],[243.5,1350.0]]]]}},{"type":"Feature","properties":{"name":"沖繩","code":"47","english":"Okinawa","region":"Y"},"geometry":{"type":"MultiPolygon","coordinates":[[[[1259.5,1350.0],[1259.5,1341.0],[1264.5,1336.0],[1265.5,1324.0],[1280.5,1315.0],[1279.5,1311.0],[1273.5,1306.0],[1275.0,1304.5],[1285.0,1304.5],[1290.0,1306.5],[1291.5,1302.0],[1298.5,1297.0],[1303.0,1288.5],[1307.5,1293.0],[1307.5,1301.0],[1297.0,1309.5],[1293.0,1315.5],[1289.0,1315.5],[1283.0,1322.5],[1274.5,1326.0],[1276.5,1332.0],[1270.5,1337.0],[1268.5,1341.0],[1270.5,1348.0],[1265.0,1353.5],[1262.0,1353.5],[1259.5,1350.0]]],[[[1190.5,1331.0],[1192.0,1328.5],[1195.0,1328.5],[1197.5,1332.0],[1195.0,1334.5],[1190.5,1331.0]]],[[[1082.5,1462.0],[1083.5,1456.0],[1086.0,1453.5],[1090.0,1458.5],[1096.5,1462.0],[1089.0,1465.5],[1085.0,1465.5],[1082.5,1462.0]]],[[[997.5,1491.0],[997.5,1486.0],[999.0,1484.5],[1004.0,1484.5],[1013.0,1473.5],[1014.5,1479.0],[1008.5,1486.0],[1008.5,1491.0],[1003.0,1494.5],[1000.0,1494.5],[997.5,1491.0]]],[[[965.5,1497.0],[971.5,1493.0],[974.0,1486.5],[982.0,1488.5],[985.5,1492.0],[985.5,1494.0],[980.0,1499.5],[970.0,1499.5],[965.5,1497.0]]],[[[148.5,1515.0],[153.5,1511.0],[156.0,1506.5],[181.0,1497.5],[186.5,1499.0],[183.0,1504.5],[169.0,1513.5],[167.5,1518.0],[161.0,1522.5],[158.0,1522.5],[148.5,1515.0]]],[[[147.5,1524.0],[147.5,1521.0],[150.0,1519.5],[157.5,1527.0],[155.0,1528.5],[147.5,1524.0]]]]}}]}
